[{"OBJECT_NAME":"SITRO-AIS 15","OBJECT_ID":"2024-199D","EPOCH":"2026-03-09T21:41:54.706560","MEAN_MOTION":14.9706426,"ECCENTRICITY":0.00074523,"INCLINATION":97.3312,"RA_OF_ASC_NODE":274.4424,"ARG_OF_PERICENTER":51.6231,"MEAN_ANOMALY":308.566,"EPHEMERIS_TYPE":0,"CLASSIFICATION_TYPE":"U","NORAD_CAT_ID":61738,"ELEMENT_SET_NO":999,"REV_AT_EPOCH":11696,"BSTAR":0.0003624053,"MEAN_MOTION_DOT":4.126e-5,"MEAN_MOTION_DDOT":0},{"OBJECT_NAME":"STARLINK-34312","OBJECT_ID":"2025-142R","EPOCH":"2026-03-09T23:21:11.585664","MEAN_MOTION":14.98336997,"ECCENTRICITY":0.00023746,"INCLINATION":70.0006,"RA_OF_ASC_NODE":313.7209,"ARG_OF_PERICENTER":269.784,"MEAN_ANOMALY":90.3047,"EPHEMERIS_TYPE":0,"CLASSIFICATION_TYPE":"U","NORAD_CAT_ID":64711,"ELEMENT_SET_NO":999,"REV_AT_EPOCH":3969,"BSTAR":0.0002393619,"MEAN_MOTION_DOT":2.765e-5,"MEAN_MOTION_DDOT":0}]
